SHENZHOU-21 (SZ-21)     
1 66263U 25246A   25306.17586037  .00031797  00000+0  38131-3 0  9990
2 66263  41.4666 263.0710 0006682 308.7013  51.3228 15.60215133257670
CZ-2F R/B               
1 66264U 25246B   25307.25866615  .00927607  75750-5  63992-3 0  9991
2 66264  41.4645 255.4799 0099935 144.8246 215.9258 16.05095513   428
