CCSDS_OMM_VERS = 2.0
CREATION_DATE  = 
ORIGINATOR     = 

OBJECT_NAME    = SHENZHOU-21 (SZ-21)
OBJECT_ID      = 2025-246A
CENTER_NAME    = EARTH
REF_FRAME      = TEME
TIME_SYSTEM    = UTC
MEAN_ELEMENT_THEORY = SGP/SGP4

EPOCH          = 2025-11-02T04:13:14.335968
MEAN_MOTION    = 15.60215133
ECCENTRICITY   = .00066821
INCLINATION    = 41.4666
RA_OF_ASC_NODE = 263.0710
ARG_OF_PERICENTER = 308.7013
MEAN_ANOMALY   = 51.3228

EPHEMERIS_TYPE = 0
CLASSIFICATION_TYPE = U
NORAD_CAT_ID   = 66263
ELEMENT_SET_NO = 999
REV_AT_EPOCH   = 25767
BSTAR          = .3813083E-3
MEAN_MOTION_DOT = .31797E-3
MEAN_MOTION_DDOT = 0

CCSDS_OMM_VERS = 2.0
CREATION_DATE  = 
ORIGINATOR     = 

OBJECT_NAME    = CZ-2F R/B
OBJECT_ID      = 2025-246B
CENTER_NAME    = EARTH
REF_FRAME      = TEME
TIME_SYSTEM    = UTC
MEAN_ELEMENT_THEORY = SGP/SGP4

EPOCH          = 2025-11-03T06:12:28.755360
MEAN_MOTION    = 16.05095513
ECCENTRICITY   = .0099935
INCLINATION    = 41.4645
RA_OF_ASC_NODE = 255.4799
ARG_OF_PERICENTER = 144.8246
MEAN_ANOMALY   = 215.9258

EPHEMERIS_TYPE = 0
CLASSIFICATION_TYPE = U
NORAD_CAT_ID   = 66264
ELEMENT_SET_NO = 999
REV_AT_EPOCH   = 42
BSTAR          = .63992E-3
MEAN_MOTION_DOT = .927607E-2
MEAN_MOTION_DDOT = .7575E-5

